STARLINK-4179           
1 53275U 22086AK  22211.58334491 -.01216492  00000+0 -55914-2 0  9997
2 53275  53.2177  13.5711 0022257  55.0576 265.8406 15.85231942  1308
STARLINK-4174           
1 53276U 22086AL  22211.58334491 -.01216681  00000+0 -56018-2 0  9994
2 53276  53.2177  13.5719 0022275  54.8585 265.4207 15.85197102  1308
STARLINK-4178           
1 53277U 22086AM  22211.58334491 -.01215888  00000+0 -55784-2 0  9992
2 53277  53.2177  13.5693 0021931  54.6885 267.1554 15.85282870  1300
STARLINK-4180           
1 53278U 22086AN  22211.58334491 -.01215939  00000+0 -55925-2 0  9997
2 53278  53.2177  13.5701 0021588  54.4243 266.7922 15.85248721  1306
STARLINK-4163           
1 53279U 22086AP  22211.65967925  .08327247  12214-4  21052-2 0  9990
2 53279  53.2159  12.4983 0021615  39.5376 320.8946 16.27439683  1606
STARLINK-4169           
1 53280U 22086AQ  22211.58334491 -.01216894  00000+0 -55703-2 0  9995
2 53280  53.2177  13.5694 0023255  55.8886 265.6069 15.85268008  1301
STARLINK-4182           
1 53281U 22086AR  22211.58334491 -.01215838  00000+0 -55525-2 0  9995
2 53281  53.2177  13.5675 0022777  54.7816 267.9701 15.85335827  1302
STARLINK-4164           
1 53282U 22086AS  22211.58334491 -.01216222  00000+0 -55637-2 0  9998
2 53282  53.2177  13.5682 0022804  55.1428 266.9948 15.85301105  1300
STARLINK-4175           
1 53283U 22086AT  22211.58334491 -.01377317  51474-3 -55396-2 0  9999
2 53283  53.2177  13.5670 0023539  55.6061 267.4468 15.85353607  1309
STARLINK-4172           
1 53284U 22086AU  22211.58334491 -.01216281  00000+0 -55544-2 0  9992
2 53284  53.2177  13.5677 0023148  55.3340 267.0969 15.85319344  1302
STARLINK-4173           
1 53285U 22086AV  22211.58334491 -.01215505  00000+0 -55290-2 0  9999
2 53285  53.2177  13.5653 0022952  55.0627 268.8917 15.85406668  1302
STARLINK-4165           
1 53286U 22086AW  22211.58334491 -.01215744  00000+0 -55390-2 0  9996
2 53286  53.2177  13.5659 0023033  54.9968 268.3643 15.85370803  1308
STARLINK-4107           
1 53287U 22086AX  22211.58334491 -.01376357  51448-3 -55186-2 0  9994
2 53287  53.2177  13.5641 0022968  55.1997 269.3981 15.85439414  1301
STARLINK-4162           
1 53288U 22086AY  22211.58334491 -.01215501  00000+0 -55395-2 0  9994
2 53288  53.2177  13.5654 0022547  55.1370 268.5381 15.85387781  1308
STARLINK-4176           
1 53289U 22086AZ  22211.58334491 -.01376030  51443-3 -55072-2 0  9993
2 53289  53.2177  13.5630 0022995  55.2754 269.9026 15.85475845  1307
STARLINK-4149           
1 53290U 22086BA  22211.58334491 -.01215257  00000+0 -55270-2 0  9997
2 53290  53.2177  13.5641 0022690  55.0625 269.2333 15.85421888  1300
STARLINK-4166           
1 53291U 22086BB  22211.58334491 -.01376052  51452-3 -54981-2 0  9998
2 53291  53.2177  13.5624 0023462  56.0471 269.4596 15.85491813  1308
STARLINK-4159           
1 53292U 22086BC  22211.58334491 -.01376118  51441-3 -55105-2 0  9999
2 53292  53.2177  13.5630 0023173  55.1623 269.7195 15.85457978  1306
STARLINK-4148           
1 53293U 22086BD  22211.58334491 -.01375810  51444-3 -54913-2 0  9997
2 53293  53.2177  13.5617 0023549  55.9387 269.8554 15.85510077  1304
STARLINK-4146           
1 53294U 22086BE  22211.58334491 -.01375283  51416-3 -54863-2 0  9995
2 53294  53.2177  13.5605 0023361  55.0279 271.0531 15.85528228  1302
FALCON 9 DEB            
1 53295U 22086BF  22211.50758655  .00394467  77676-4  54913-3 0  9996
2 53295  53.2220  13.7289 0071899  64.5173 296.3274 16.00232116   960
FALCON 9 DEB            
1 53296U 22086BG  22211.50595279  .00401813  80786-4  55878-3 0  9999
2 53296  53.2209  13.7155 0067955  65.9770 294.8355 16.00753470   960
FALCON 9 DEB            
1 53297U 22086BH  22211.50196514  .00418193  88136-4  54671-3 0  9995
2 53297  53.2201  13.6839 0065901  61.5723 299.1929 16.01944714   969
FALCON 9 DEB            
1 53298U 22086BJ  22211.50102507  .00427020  91808-4  55463-3 0  9994
2 53298  53.2203  13.6765 0064940  62.5393 298.2222 16.02160389   961
